IRIDIUM 112             
1 41925U 17003J   25222.52409961  .00000020  00000+0 -85413-7 0  9991
2 41925  86.3957 218.0573 0002344  86.6783 273.4681 14.34217834448776
IRIDIUM 111             
1 41926U 17003K   25221.53465326  .00000126  00000+0  37927-4 0  9999
2 41926  86.3957 218.5344 0002164  91.7146 268.4297 14.34218505448580
IRIDIUM 113             
1 42803U 17039A   25222.56114717  .00000101  00000+0  28996-4 0  9991
2 42803  86.3936  92.0322 0002118  79.9960 280.1475 14.34218267426663
IRIDIUM 123             
1 42804U 17039B   25222.18401464  .00000166  00000+0  52200-4 0  9994
2 42804  86.3988 123.6722 0001906  89.8222 270.3192 14.34218033425376
IRIDIUM 120             
1 42805U 17039C   25221.92688743  .00000118  00000+0  34904-4 0  9991
2 42805  86.3925  92.1201 0002176  93.8285 266.3160 14.34218548426567
IRIDIUM 115             
1 42806U 17039D   25222.51641106  .00000385  00000+0  10845-3 0  9993
2 42806  86.4464  91.9600 0001717 102.2977 257.8416 14.43278541429459
IRIDIUM 118             
1 42807U 17039E   25222.14596003  .00000084  00000+0  22809-4 0  9998
2 42807  86.3988 123.6877 0002176  79.0090 281.1351 14.34218061425372
IRIDIUM 117             
1 42808U 17039F   25221.46730142  .00000138  00000+0  42205-4 0  9999
2 42808  86.3989 123.9318 0001915  84.1850 275.9564 14.34218457425295
